KUIPER-00176            
1 65788U 25217AC  25331.16670139 -.00709804  00000+0 -36742-1 0  9990
2 65788  51.8844 140.8808 0003524 272.2891  35.3101 15.18169582  5442
KUIPER-00101            
1 65947U 25228A   25331.16670139 -.01226024  00000+0 -70674-1 0  9990
2 65947  51.8914  97.2411 0003165 321.7840  15.4134 15.15040401  5526
KUIPER-00113            
1 65948U 25228B   25331.16670139 -.01029088  00000+0 -43654-1 0  9990
2 65948  51.8807  95.8605 0006325 295.1937 312.6447 15.25413753  3622
KUIPER-00117            
1 65949U 25228C   25331.16670139 -.00584934  00000+0 -29034-1 0  9992
2 65949  51.8869  96.4540 0008341 308.0998 358.1246 15.19492655  5767
KUIPER-00121            
1 65950U 25228D   25330.51621355 -.00118312  00000+0 -34546-2 0  9996
2 65950  51.8791  98.8214 0007521 319.3514  40.6910 15.35148871  7922
KUIPER-00122            
1 65951U 25228E   25331.16670139 -.00989719  00000+0 -69097-1 0  9998
2 65951  51.8955  98.3750 0006098 336.4517 173.5389 15.07537660  4409
KUIPER-00123            
1 65952U 25228F   25331.16670139 -.00079364  00000+0 -54625-2 0  9997
2 65952  51.9006  98.3830 0006579 313.6281 101.1122 15.05713294  4933
KUIPER-00124            
1 65953U 25228G   25330.91491102 -.00117012  00000+0 -35653-2 0  9994
2 65953  51.8779  96.9882 0005374 327.3810  32.6843 15.33823940  7980
